[{"OBJECT_NAME":"STARLINK-3249","OBJECT_ID":"2021-115G","EPOCH":"2026-03-09T11:08:50.396352","MEAN_MOTION":15.08815855,"ECCENTRICITY":0.00015532,"INCLINATION":53.2178,"RA_OF_ASC_NODE":160.3234,"ARG_OF_PERICENTER":118.2346,"MEAN_ANOMALY":241.8804,"EPHEMERIS_TYPE":0,"CLASSIFICATION_TYPE":"U","NORAD_CAT_ID":49730,"ELEMENT_SET_NO":999,"REV_AT_EPOCH":23535,"BSTAR":0.00031227537,"MEAN_MOTION_DOT":4.682e-5,"MEAN_MOTION_DDOT":0},{"OBJECT_NAME":"PEGASUS DEB","OBJECT_ID":"1994-029AET","EPOCH":"2026-03-08T20:58:13.181952","MEAN_MOTION":14.33766801,"ECCENTRICITY":0.03416791,"INCLINATION":81.9646,"RA_OF_ASC_NODE":115.4043,"ARG_OF_PERICENTER":327.5056,"MEAN_ANOMALY":30.5491,"EPHEMERIS_TYPE":0,"CLASSIFICATION_TYPE":"U","NORAD_CAT_ID":39308,"ELEMENT_SET_NO":999,"REV_AT_EPOCH":66634,"BSTAR":0.0017314365,"MEAN_MOTION_DOT":9.329e-5,"MEAN_MOTION_DDOT":0}]
